{
  "type": "FeatureCollection",
  "features": [
    {
      "type": "Feature",
      "properties": {
        "norad_id": 38867,
        "name": "INTELSAT 23 (IS-23)",
        "group": "intelsat",
        "lat": -0.033535100383108675,
        "lon": -47.75807096278652,
        "alt_km": 35785.79858385765,
        "timestamp": "2025-12-13T18:50:04.096251+00:00",
        "meta_object_name": "INTELSAT 23 (IS-23)",
        "meta_object_id": "2012-057A",
        "meta_epoch": "2025-12-12T20:04:33.254400",
        "meta_mean_motion": 1.00272659,
        "meta_eccentricity": 0.0001042,
        "meta_inclination": 0.0448,
        "meta_ra_of_asc_node": 97.1317,
        "meta_arg_of_pericenter": 126.8115,
        "meta_mean_anomaly": 105.9792,
        "meta_ephemeris_type": 0,
        "meta_classification_type": "U",
        "meta_norad_cat_id": 38867,
        "meta_element_set_no": 999,
        "meta_rev_at_epoch": 4808,
        "meta_bstar": 0,
        "meta_mean_motion_dot": -2.72e-06,
        "meta_mean_motion_ddot": 0,
        "tle_line1": "1 38867U 12057A   25346.83649600 -.00000272  00000+0  00000+0 0  9993",
        "tle_line2": "2 38867   0.0448  97.1317 0001042 126.8115 105.9792  1.00272659 48084"
      },
      "geometry": {
        "type": "Point",
        "coordinates": [
          -47.75807096278652,
          -0.033535100383108675
        ]
      }
    },
    {
      "type": "Feature",
      "properties": {
        "norad_id": 39360,
        "name": "FM-6",
        "group": "intelsat",
        "lat": -0.010427989362910865,
        "lon": -110.88795909991333,
        "alt_km": 35781.96775909073,
        "timestamp": "2025-12-13T18:50:04.096263+00:00",
        "meta_object_name": "FM-6",
        "meta_object_id": "2013-058A",
        "meta_epoch": "2025-12-13T05:13:48.624960",
        "meta_mean_motion": 1.00272571,
        "meta_eccentricity": 0.00029284,
        "meta_inclination": 0.0093,
        "meta_ra_of_asc_node": 60.8304,
        "meta_arg_of_pericenter": 116.5266,
        "meta_mean_anomaly": 227.1066,
        "meta_ephemeris_type": 0,
        "meta_classification_type": "U",
        "meta_norad_cat_id": 39360,
        "meta_element_set_no": 999,
        "meta_rev_at_epoch": 4420,
        "meta_bstar": 0,
        "meta_mean_motion_dot": -4e-08,
        "meta_mean_motion_ddot": 0,
        "tle_line1": "1 39360U 13058A   25347.21792390 -.00000004  00000+0  00000+0 0  9995",
        "tle_line2": "2 39360   0.0093  60.8304 0002928 116.5266 227.1066  1.00272571 44203"
      },
      "geometry": {
        "type": "Point",
        "coordinates": [
          -110.88795909991333,
          -0.010427989362910865
        ]
      }
    },
    {
      "type": "Feature",
      "properties": {
        "norad_id": 40271,
        "name": "INTELSAT 30 (IS-30)",
        "group": "intelsat",
        "lat": -0.029864493901816072,
        "lon": -89.83960495512414,
        "alt_km": 35791.15804818023,
        "timestamp": "2025-12-13T18:50:04.096274+00:00",
        "meta_object_name": "INTELSAT 30 (IS-30)",
        "meta_object_id": "2014-062A",
        "meta_epoch": "2025-12-12T08:55:38.613216",
        "meta_mean_motion": 1.00272537,
        "meta_eccentricity": 0.00012624,
        "meta_inclination": 0.0176,
        "meta_ra_of_asc_node": 31.1392,
        "meta_arg_of_pericenter": 47.2418,
        "meta_mean_anomaly": 41.7881,
        "meta_ephemeris_type": 0,
        "meta_classification_type": "U",
        "meta_norad_cat_id": 40271,
        "meta_element_set_no": 999,
        "meta_rev_at_epoch": 491,
        "meta_bstar": 0,
        "meta_mean_motion_dot": -1.41e-06,
        "meta_mean_motion_ddot": 0,
        "tle_line1": "1 40271U 14062A   25346.37197469 -.00000141  00000+0  00000+0 0  9998",
        "tle_line2": "2 40271   0.0176  31.1392 0001262  47.2418  41.7881  1.00272537  4916"
      },
      "geometry": {
        "type": "Point",
        "coordinates": [
          -89.83960495512414,
          -0.029864493901816072
        ]
      }
    },
    {
      "type": "Feature",
      "properties": {
        "norad_id": 40333,
        "name": "DIRECTV 14",
        "group": "intelsat",
        "lat": -0.03387311477147236,
        "lon": -94.0008794085214,
        "alt_km": 35786.893610279716,
        "timestamp": "2025-12-13T18:50:04.096286+00:00",
        "meta_object_name": "DIRECTV 14",
        "meta_object_id": "2014-078B",
        "meta_epoch": "2025-12-13T05:10:28.076736",
        "meta_mean_motion": 1.00270161,
        "meta_eccentricity": 2.873e-05,
        "meta_inclination": 0.0191,
        "meta_ra_of_asc_node": 325.5463,
        "meta_arg_of_pericenter": 194.2425,
        "meta_mean_anomaly": 260.7577,
        "meta_ephemeris_type": 0,
        "meta_classification_type": "U",
        "meta_norad_cat_id": 40333,
        "meta_element_set_no": 999,
        "meta_rev_at_epoch": 4017,
        "meta_bstar": 0,
        "meta_mean_motion_dot": -1.12e-06,
        "meta_mean_motion_ddot": 0,
        "tle_line1": "1 40333U 14078B   25347.21560274 -.00000112  00000+0  00000+0 0  9994",
        "tle_line2": "2 40333   0.0191 325.5463 0000287 194.2425 260.7577  1.00270161 40172"
      },
      "geometry": {
        "type": "Point",
        "coordinates": [
          -94.0008794085214,
          -0.03387311477147236
        ]
      }
    },
    {
      "type": "Feature",
      "properties": {
        "norad_id": 40663,
        "name": "DIRECTV 15",
        "group": "intelsat",
        "lat": -0.018419248039682524,
        "lon": -97.6402502104098,
        "alt_km": 35785.53305560008,
        "timestamp": "2025-12-13T18:50:04.096298+00:00",
        "meta_object_name": "DIRECTV 15",
        "meta_object_id": "2015-026A",
        "meta_epoch": "2025-12-13T06:17:08.930688",
        "meta_mean_motion": 1.00272043,
        "meta_eccentricity": 1.156e-05,
        "meta_inclination": 0.0396,
        "meta_ra_of_asc_node": 84.8277,
        "meta_arg_of_pericenter": 174.2824,
        "meta_mean_anomaly": 174.512,
        "meta_ephemeris_type": 0,
        "meta_classification_type": "U",
        "meta_norad_cat_id": 40663,
        "meta_element_set_no": 999,
        "meta_rev_at_epoch": 3859,
        "meta_bstar": 0,
        "meta_mean_motion_dot": -8.9e-07,
        "meta_mean_motion_ddot": 0,
        "tle_line1": "1 40663U 15026A   25347.26190892 -.00000089  00000+0  00000+0 0  9997",
        "tle_line2": "2 40663   0.0396  84.8277 0000115 174.2824 174.5120  1.00272043 38594"
      },
      "geometry": {
        "type": "Point",
        "coordinates": [
          -97.6402502104098,
          -0.018419248039682524
        ]
      }
    },
    {
      "type": "Feature",
      "properties": {
        "norad_id": 40664,
        "name": "SKY MEXICO-1",
        "group": "intelsat",
        "lat": -0.029442961253759843,
        "lon": -73.5377091553743,
        "alt_km": 35775.46692515966,
        "timestamp": "2025-12-13T18:50:04.096310+00:00",
        "meta_object_name": "SKY MEXICO-1",
        "meta_object_id": "2015-026B",
        "meta_epoch": "2025-12-13T04:30:53.125632",
        "meta_mean_motion": 1.00272293,
        "meta_eccentricity": 0.00025174,
        "meta_inclination": 0.0378,
        "meta_ra_of_asc_node": 79.7735,
        "meta_arg_of_pericenter": 198.3444,
        "meta_mean_anomaly": 152.9635,
        "meta_ephemeris_type": 0,
        "meta_classification_type": "U",
        "meta_norad_cat_id": 40664,
        "meta_element_set_no": 999,
        "meta_rev_at_epoch": 3858,
        "meta_bstar": 0,
        "meta_mean_motion_dot": -2.21e-06,
        "meta_mean_motion_ddot": 0,
        "tle_line1": "1 40664U 15026B   25347.18811488 -.00000221  00000+0  00000+0 0  9998",
        "tle_line2": "2 40664   0.0378  79.7735 0002517 198.3444 152.9635  1.00272293 38587"
      },
      "geometry": {
        "type": "Point",
        "coordinates": [
          -73.5377091553743,
          -0.029442961253759843
        ]
      }
    },
    {
      "type": "Feature",
      "properties": {
        "norad_id": 40874,
        "name": "INTELSAT 34 (IS-34)",
        "group": "intelsat",
        "lat": -0.010237931460396853,
        "lon": -50.27835433589559,
        "alt_km": 35788.255643351826,
        "timestamp": "2025-12-13T18:50:04.096322+00:00",
        "meta_object_name": "INTELSAT 34 (IS-34)",
        "meta_object_id": "2015-039A",
        "meta_epoch": "2025-12-12T13:12:57.677184",
        "meta_mean_motion": 1.00271609,
        "meta_eccentricity": 6.184e-05,
        "meta_inclination": 0.0135,
        "meta_ra_of_asc_node": 325.751,
        "meta_arg_of_pericenter": 204.0245,
        "meta_mean_anomaly": 54.4583,
        "meta_ephemeris_type": 0,
        "meta_classification_type": "U",
        "meta_norad_cat_id": 40874,
        "meta_element_set_no": 999,
        "meta_rev_at_epoch": 3775,
        "meta_bstar": 0,
        "meta_mean_motion_dot": -2.74e-06,
        "meta_mean_motion_ddot": 0,
        "tle_line1": "1 40874U 15039A   25346.55066756 -.00000274  00000+0  00000+0 0  9993",
        "tle_line2": "2 40874   0.0135 325.7510 0000618 204.0245  54.4583  1.00271609 37756"
      },
      "geometry": {
        "type": "Point",
        "coordinates": [
          -50.27835433589559,
          -0.010237931460396853
        ]
      }
    }
  ]
}